{
  "norad_id": 61906,
  "name": "2024-205N",
  "history": [
    {
      "epoch": "2026-03-28T22:05:41.197344Z",
      "apogee_km": 467.1094178036901,
      "perigee_km": 456.503128166868,
      "latitude_deg": -2.9664401712175517e-05,
      "longitude_deg": 10.253712057270056,
      "height_km": 460.49961232947845,
      "semi_major_axis_km": 6839.943272985279,
      "eccentricity": 0.00077532,
      "inclination_deg": 97.4193,
      "raan_deg": 168.0095,
      "arg_perigee_deg": 326.4689,
      "mean_anomaly_deg": 33.6062,
      "mean_motion_rev_day": 15.34701834
    },
    {
      "epoch": "2026-03-29T04:21:14.689728Z",
      "apogee_km": 467.07777797496055,
      "perigee_km": 456.4485731021741,
      "latitude_deg": 1.1039249405917106e-05,
      "longitude_deg": -83.63040521059204,
      "height_km": 460.5051526848325,
      "semi_major_axis_km": 6839.900175538567,
      "eccentricity": 0.000777,
      "inclination_deg": 97.4194,
      "raan_deg": 168.272,
      "arg_perigee_deg": 325.3524,
      "mean_anomaly_deg": 34.7212,
      "mean_motion_rev_day": 15.34716339
    },
    {
      "epoch": "2026-03-30T05:23:26.323008Z",
      "apogee_km": 466.84584065220315,
      "perigee_km": 456.3126776131394,
      "latitude_deg": 4.795115333009307e-05,
      "longitude_deg": -99.1577964954678,
      "height_km": 460.5980729511562,
      "semi_major_axis_km": 6839.716259132671,
      "eccentricity": 0.00077,
      "inclination_deg": 97.4194,
      "raan_deg": 169.3213,
      "arg_perigee_deg": 321.0501,
      "mean_anomaly_deg": 39.0187,
      "mean_motion_rev_day": 15.34778241
    }
  ]
}